{
  "norad_id": 63975,
  "name": "STARLINK-34139",
  "history": [
    {
      "epoch": "2026-03-28T15:27:04.787424Z",
      "apogee_km": 483.684871895397,
      "perigee_km": 482.3126447437335,
      "latitude_deg": -4.8449866270692865e-06,
      "longitude_deg": 8.00004783866,
      "height_km": 482.75594712559854,
      "semi_major_axis_km": 6861.135758319565,
      "eccentricity": 0.0001,
      "inclination_deg": 43.0012,
      "raan_deg": 65.8313,
      "arg_perigee_deg": 271.6124,
      "mean_anomaly_deg": 88.4613,
      "mean_motion_rev_day": 15.27596811
    },
    {
      "epoch": "2026-03-29T05:34:28.928064Z",
      "apogee_km": 483.17076019332126,
      "perigee_km": 482.73439489618977,
      "latitude_deg": -4.885081060400347e-06,
      "longitude_deg": 152.24483548114964,
      "height_km": 482.65930288237433,
      "semi_major_axis_km": 6861.089577544755,
      "eccentricity": 3.18e-05,
      "inclination_deg": 43.0022,
      "raan_deg": 62.5067,
      "arg_perigee_deg": 288.5017,
      "mean_anomaly_deg": 71.58,
      "mean_motion_rev_day": 15.27612234
    }
  ]
}